{
    "links": {
        "self": "http://www.neowsapp.com/rest/v1/neo/3767930?api_key=iIulBulltgU6a56xZRHN4H3l9WmuAYTsLGpBGhQ2"
    },
    "id": "3767930",
    "neo_reference_id": "3767930",
    "name": "(2017 BP93)",
    "designation": "2017 BP93",
    "nasa_jpl_url": "http://ssd.jpl.nasa.gov/sbdb.cgi?sstr=3767930",
    "absolute_magnitude_h": 23.8,
    "estimated_diameter": {
        "kilometers": {
            "estimated_diameter_min": 0.046190746,
            "estimated_diameter_max": 0.1032856481
        },
        "meters": {
            "estimated_diameter_min": 46.1907460282,
            "estimated_diameter_max": 103.2856480504
        },
        "miles": {
            "estimated_diameter_min": 0.0287015901,
            "estimated_diameter_max": 0.0641787064
        },
        "feet": {
            "estimated_diameter_min": 151.544447199,
            "estimated_diameter_max": 338.8636855496
        }
    },
    "is_potentially_hazardous_asteroid": false,
    "close_approach_data": [
        {
            "close_approach_date": "2017-01-23",
            "close_approach_date_full": "2017-Jan-23 11:33",
            "epoch_date_close_approach": 1485171180000,
            "relative_velocity": {
                "kilometers_per_second": "9.2810477027",
                "kilometers_per_hour": "33411.7717298346",
                "miles_per_hour": "20760.7756062408"
            },
            "miss_distance": {
                "astronomical": "0.2555855751",
                "lunar": "99.4227887139",
                "kilometers": "38235057.637685037",
                "miles": "23758163.1353940306"
            },
            "orbiting_body": "Earth"
        }
    ],
    "orbital_data": {
        "orbit_id": "2",
        "orbit_determination_date": "2017-04-06 08:20:25",
        "first_observation_date": "2017-01-29",
        "last_observation_date": "2017-02-02",
        "data_arc_in_days": 4,
        "observations_used": 8,
        "orbit_uncertainty": "9",
        "minimum_orbit_intersection": ".253236",
        "jupiter_tisserand_invariant": "5.058",
        "epoch_osculation": "2457784.5",
        "eccentricity": ".03431871135486587",
        "semi_major_axis": "1.263224476525495",
        "inclination": "17.48568284483909",
        "ascending_node_longitude": "123.3614104196467",
        "orbital_period": "518.5841334157059",
        "perihelion_distance": "1.219872240339215",
        "perihelion_argument": "302.9284346947997",
        "aphelion_distance": "1.306576712711775",
        "perihelion_time": "2457698.044816964570",
        "mean_anomaly": "60.01700377478648",
        "mean_motion": ".694197868393744",
        "equinox": "J2000",
        "orbit_class": {
            "orbit_class_type": "AMO",
            "orbit_class_description": "Near-Earth asteroid orbits similar to that of 1221 Amor",
            "orbit_class_range": "1.017 AU < q (perihelion) < 1.3 AU"
        }
    },
    "is_sentry_object": false
}